{
  "type": "FeatureCollection",
  "features": [
    {
      "type": "Feature",
      "properties": {
        "norad_id": 35052,
        "name": "IRIDIUM 33 DEB",
        "group": "iridium-33-debris",
        "lat": 40.080223015480286,
        "lon": 21.191006414482715,
        "alt_km": 751.9720038099222,
        "timestamp": "2025-12-18T07:01:54.974461+00:00",
        "meta_object_name": "IRIDIUM 33 DEB",
        "meta_object_id": "1997-051NY",
        "meta_epoch": "2025-12-17T12:28:55.141824",
        "meta_mean_motion": 14.38497693,
        "meta_eccentricity": 0.00135167,
        "meta_inclination": 86.3305,
        "meta_ra_of_asc_node": 18.4267,
        "meta_arg_of_pericenter": 71.7027,
        "meta_mean_anomaly": 288.5641,
        "meta_ephemeris_type": 0,
        "meta_classification_type": "U",
        "meta_norad_cat_id": 35052,
        "meta_element_set_no": 999,
        "meta_rev_at_epoch": 87344,
        "meta_bstar": 0.00015333299,
        "meta_mean_motion_dot": 4.89e-06,
        "meta_mean_motion_ddot": 0,
        "tle_line1": "1 35052U 97051NY  25351.52008266  .00000489  00000+0  15333-3 0  9990",
        "tle_line2": "2 35052  86.3305  18.4267 0013516  71.7027 288.5641 14.38497693873444"
      },
      "geometry": {
        "type": "Point",
        "coordinates": [
          21.191006414482715,
          40.080223015480286
        ]
      }
    },
    {
      "type": "Feature",
      "properties": {
        "norad_id": 35080,
        "name": "IRIDIUM 33 DEB",
        "group": "iridium-33-debris",
        "lat": 85.98172833766849,
        "lon": 158.95066668137167,
        "alt_km": 585.8460099594113,
        "timestamp": "2025-12-18T07:01:54.974471+00:00",
        "meta_object_name": "IRIDIUM 33 DEB",
        "meta_object_id": "1997-051PF",
        "meta_epoch": "2025-12-17T14:27:59.320224",
        "meta_mean_motion": 14.86627961,
        "meta_eccentricity": 0.00595337,
        "meta_inclination": 86.2078,
        "meta_ra_of_asc_node": 50.0516,
        "meta_arg_of_pericenter": 162.9618,
        "meta_mean_anomaly": 197.3625,
        "meta_ephemeris_type": 0,
        "meta_classification_type": "U",
        "meta_norad_cat_id": 35080,
        "meta_element_set_no": 999,
        "meta_rev_at_epoch": 69760,
        "meta_bstar": 0.0047545971,
        "meta_mean_motion_dot": 0.00043801,
        "meta_mean_motion_ddot": 0,
        "tle_line1": "1 35080U 97051PF  25351.60276991  .00043801  00000+0  47546-2 0  9997",
        "tle_line2": "2 35080  86.2078  50.0516 0059533 162.9618 197.3625 14.86627961697605"
      },
      "geometry": {
        "type": "Point",
        "coordinates": [
          158.95066668137167,
          85.98172833766849
        ]
      }
    },
    {
      "type": "Feature",
      "properties": {
        "norad_id": 35297,
        "name": "IRIDIUM 33 DEB",
        "group": "iridium-33-debris",
        "lat": 79.71253668314915,
        "lon": 80.7656893351912,
        "alt_km": 724.8770456100601,
        "timestamp": "2025-12-18T07:01:54.974481+00:00",
        "meta_object_name": "IRIDIUM 33 DEB",
        "meta_object_id": "1997-051PM",
        "meta_epoch": "2025-12-16T11:27:21.167712",
        "meta_mean_motion": 14.45174956,
        "meta_eccentricity": 0.00178431,
        "meta_inclination": 86.3863,
        "meta_ra_of_asc_node": 61.1645,
        "meta_arg_of_pericenter": 129.6186,
        "meta_mean_anomaly": 230.6595,
        "meta_ephemeris_type": 0,
        "meta_classification_type": "U",
        "meta_norad_cat_id": 35297,
        "meta_element_set_no": 999,
        "meta_rev_at_epoch": 70480,
        "meta_bstar": 0.00045011402,
        "meta_mean_motion_dot": 1.598e-05,
        "meta_mean_motion_ddot": 0,
        "tle_line1": "1 35297U 97051PM  25350.47732833  .00001598  00000+0  45011-3 0  9996",
        "tle_line2": "2 35297  86.3863  61.1645 0017843 129.6186 230.6595 14.45174956704806"
      },
      "geometry": {
        "type": "Point",
        "coordinates": [
          80.7656893351912,
          79.71253668314915
        ]
      }
    },
    {
      "type": "Feature",
      "properties": {
        "norad_id": 35299,
        "name": "IRIDIUM 33 DEB",
        "group": "iridium-33-debris",
        "lat": -72.2880407565968,
        "lon": 19.04244426896474,
        "alt_km": 801.6719037272724,
        "timestamp": "2025-12-18T07:01:54.974492+00:00",
        "meta_object_name": "IRIDIUM 33 DEB",
        "meta_object_id": "1997-051PP",
        "meta_epoch": "2025-12-17T03:17:33.195264",
        "meta_mean_motion": 14.40883464,
        "meta_eccentricity": 0.00589054,
        "meta_inclination": 86.2885,
        "meta_ra_of_asc_node": 31.2723,
        "meta_arg_of_pericenter": 88.3983,
        "meta_mean_anomaly": 327.6495,
        "meta_ephemeris_type": 0,
        "meta_classification_type": "U",
        "meta_norad_cat_id": 35299,
        "meta_element_set_no": 999,
        "meta_rev_at_epoch": 86394,
        "meta_bstar": 0.00061427039,
        "meta_mean_motion_dot": 2.03e-05,
        "meta_mean_motion_ddot": 0,
        "tle_line1": "1 35299U 97051PP  25351.13718976  .00002030  00000+0  61427-3 0  9995",
        "tle_line2": "2 35299  86.2885  31.2723 0058905  88.3983 327.6495 14.40883464863949"
      },
      "geometry": {
        "type": "Point",
        "coordinates": [
          19.04244426896474,
          -72.2880407565968
        ]
      }
    },
    {
      "type": "Feature",
      "properties": {
        "norad_id": 35480,
        "name": "IRIDIUM 33 DEB",
        "group": "iridium-33-debris",
        "lat": -25.611123576279425,
        "lon": -155.7445415380726,
        "alt_km": 737.4616431256718,
        "timestamp": "2025-12-18T07:01:54.974502+00:00",
        "meta_object_name": "IRIDIUM 33 DEB",
        "meta_object_id": "1997-051QA",
        "meta_epoch": "2025-12-15T08:30:57.118464",
        "meta_mean_motion": 14.49774703,
        "meta_eccentricity": 0.00160032,
        "meta_inclination": 86.3571,
        "meta_ra_of_asc_node": 23.7786,
        "meta_arg_of_pericenter": 97.0457,
        "meta_mean_anomaly": 263.2568,
        "meta_ephemeris_type": 0,
        "meta_classification_type": "U",
        "meta_norad_cat_id": 35480,
        "meta_element_set_no": 999,
        "meta_rev_at_epoch": 87069,
        "meta_bstar": 0.00045738518,
        "meta_mean_motion_dot": 1.785e-05,
        "meta_mean_motion_ddot": 0,
        "tle_line1": "1 35480U 97051QA  25349.35482776  .00001785  00000+0  45739-3 0  9998",
        "tle_line2": "2 35480  86.3571  23.7786 0016003  97.0457 263.2568 14.49774703870695"
      },
      "geometry": {
        "type": "Point",
        "coordinates": [
          -155.7445415380726,
          -25.611123576279425
        ]
      }
    },
    {
      "type": "Feature",
      "properties": {
        "norad_id": 35484,
        "name": "IRIDIUM 33 DEB",
        "group": "iridium-33-debris",
        "lat": -85.62761526059121,
        "lon": -66.1805957251204,
        "alt_km": 592.5320265168839,
        "timestamp": "2025-12-18T07:01:54.974513+00:00",
        "meta_object_name": "IRIDIUM 33 DEB",
        "meta_object_id": "1997-051QE",
        "meta_epoch": "2025-12-13T07:15:48.307680",
        "meta_mean_motion": 14.98714194,
        "meta_eccentricity": 0.00237352,
        "meta_inclination": 86.3615,
        "meta_ra_of_asc_node": 352.4822,
        "meta_arg_of_pericenter": 123.3819,
        "meta_mean_anomaly": 236.9688,
        "meta_ephemeris_type": 0,
        "meta_classification_type": "U",
        "meta_norad_cat_id": 35484,
        "meta_element_set_no": 999,
        "meta_rev_at_epoch": 62024,
        "meta_bstar": 0.0048114888,
        "meta_mean_motion_dot": 0.00058609,
        "meta_mean_motion_ddot": 0,
        "tle_line1": "1 35484U 97051QE  25347.30264245  .00058609  00000+0  48115-2 0  9991",
        "tle_line2": "2 35484  86.3615 352.4822 0023735 123.3819 236.9688 14.98714194620242"
      },
      "geometry": {
        "type": "Point",
        "coordinates": [
          -66.1805957251204,
          -85.62761526059121
        ]
      }
    },
    {
      "type": "Feature",
      "properties": {
        "norad_id": 35488,
        "name": "IRIDIUM 33 DEB",
        "group": "iridium-33-debris",
        "lat": 65.52915024260282,
        "lon": -53.5606113361295,
        "alt_km": 597.5508989504451,
        "timestamp": "2025-12-18T07:01:54.974523+00:00",
        "meta_object_name": "IRIDIUM 33 DEB",
        "meta_object_id": "1997-051QJ",
        "meta_epoch": "2025-12-17T14:32:45.548736",
        "meta_mean_motion": 14.83180169,
        "meta_eccentricity": 0.00292353,
        "meta_inclination": 86.3235,
        "meta_ra_of_asc_node": 298.6342,
        "meta_arg_of_pericenter": 27.0336,
        "meta_mean_anomaly": 333.2402,
        "meta_ephemeris_type": 0,
        "meta_classification_type": "U",
        "meta_norad_cat_id": 35488,
        "meta_element_set_no": 999,
        "meta_rev_at_epoch": 88338,
        "meta_bstar": 0.001310248,
        "meta_mean_motion_dot": 0.00010803,
        "meta_mean_motion_ddot": 0,
        "tle_line1": "1 35488U 97051QJ  25351.60608274  .00010803  00000+0  13102-2 0  9999",
        "tle_line2": "2 35488  86.3235 298.6342 0029235  27.0336 333.2402 14.83180169883381"
      },
      "geometry": {
        "type": "Point",
        "coordinates": [
          -53.5606113361295,
          65.52915024260282
        ]
      }
    }
  ]
}